start=new Date('2023-01-17T00:00:00.000Z').valueOf();
sats=[{"ARG_OF_PERICENTER":"77.2016","TLE_LINE2":"2 47625  53.0528 184.4452 0001387  77.2016 282.9128 15.06403106106970","MEAN_MOTION_DDOT":"0.0000000000000","INCLINATION":"53.0528","MEAN_ELEMENT_THEORY":"SGP4","RA_OF_ASC_NODE":"184.4452","PERIOD":"95.592","SEMIMAJOR_AXIS":"6925.339","APOAPSIS":"548.165","GP_ID":"223249985","FILE":"3750956","COUNTRY_CODE":"US","LAUNCH_DATE":"2021-02-16","MEAN_MOTION":"15.06403106","NORAD_CAT_ID":"47625","SITE":"AFETR","RCS_SIZE":"LARGE","EPHEMERIS_TYPE":"0","REF_FRAME":"TEME","CENTER_NAME":"EARTH","REV_AT_EPOCH":"10697","ECCENTRICITY":"0.00013870","CLASSIFICATION_TYPE":"U","MEAN_ANOMALY":"282.9128","EPOCH":"2023-01-16T20:27:17.831808","OBJECT_NAME":"STARLINK-1704","PERIAPSIS":"546.243","OBJECT_ID":"2021-012F","ELEMENT_SET_NO":"999","MEAN_MOTION_DOT":"0.00002381","TLE_LINE1":"1 47625U 21012F   23016.85228972  .00002381  00000-0  17865-3 0  9999","BSTAR":"0.00017865000000","TIME_SYSTEM":"UTC","DECAY_DATE":null,"OBJECT_TYPE":"PAYLOAD"},{"TLE_LINE1":"1 47626U 21012G   23016.90484548  .00002059  00000-0  15711-3 0  9999","MEAN_MOTION_DOT":"0.00002059","ELEMENT_SET_NO":"999","OBJECT_TYPE":"PAYLOAD","DECAY_DATE":null,"TIME_SYSTEM":"UTC","BSTAR":"0.00015711000000","CLASSIFICATION_TYPE":"U","REV_AT_EPOCH":"10698","ECCENTRICITY":"0.00013650","OBJECT_ID":"2021-012G","PERIAPSIS":"546.296","OBJECT_NAME":"STARLINK-1761","EPOCH":"2023-01-16T21:42:58.649472","MEAN_ANOMALY":"277.5781","RCS_SIZE":"LARGE","SITE":"AFETR","NORAD_CAT_ID":"47626","MEAN_MOTION":"15.06390808","CENTER_NAME":"EARTH","REF_FRAME":"TEME","EPHEMERIS_TYPE":"0","PERIOD":"95.593","RA_OF_ASC_NODE":"184.2348","MEAN_ELEMENT_THEORY":"SGP4","ARG_OF_PERICENTER":"82.5363","TLE_LINE2":"2 47626  53.0537 184.2348 0001365  82.5363 277.5781 15.06390808106983","MEAN_MOTION_DDOT":"0.0000000000000","INCLINATION":"53.0537","LAUNCH_DATE":"2021-02-16","COUNTRY_CODE":"US","FILE":"3750956","GP_ID":"223250235","APOAPSIS":"548.187","SEMIMAJOR_AXIS":"6925.377"},{"SITE":"AFETR","RCS_SIZE":"LARGE","MEAN_MOTION":"15.06398617","NORAD_CAT_ID":"47627","REF_FRAME":"TEME","CENTER_NAME":"EARTH","EPHEMERIS_TYPE":"0","MEAN_ELEMENT_THEORY":"SGP4","RA_OF_ASC_NODE":"89.1933","PERIOD":"95.592","TLE_LINE2":"2 47627  53.0529  89.1933 0001496  69.6784 290.4365 15.06398617108290","MEAN_MOTION_DDOT":"0.0000000000000","ARG_OF_PERICENTER":"69.6784","INCLINATION":"53.0529","GP_ID":"223251483","FILE":"3750956","COUNTRY_CODE":"US","LAUNCH_DATE":"2021-02-16","SEMIMAJOR_AXIS":"6925.353","APOAPSIS":"548.254","ELEMENT_SET_NO":"999","MEAN_MOTION_DOT":"0.00004110","TLE_LINE1":"1 47627U 21012H   23016.91543975  .00004110  00000-0  29466-3 0  9993","TIME_SYSTEM":"UTC","DECAY_DATE":null,"OBJECT_TYPE":"PAYLOAD","BSTAR":"0.00029466000000","CLASSIFICATION_TYPE":"U","ECCENTRICITY":"0.00014960","REV_AT_EPOCH":"10829","PERIAPSIS":"546.182","OBJECT_ID":"2021-012H","EPOCH":"2023-01-16T21:58:13.994400","MEAN_ANOMALY":"290.4365","OBJECT_NAME":"STARLINK-1972"},{"CLASSIFICATION_TYPE":"U","REV_AT_EPOCH":"10698","ECCENTRICITY":"0.00013040","PERIAPSIS":"546.300","OBJECT_ID":"2021-012J","OBJECT_NAME":"STARLINK-1973","EPOCH":"2023-01-16T20:59:08.547072","MEAN_ANOMALY":"262.8012","MEAN_MOTION_DOT":"0.00001223","TLE_LINE1":"1 47628U 21012J   23016.87440448  .00001223  00000-0  10099-3 0  9994","ELEMENT_SET_NO":"999","OBJECT_TYPE":"PAYLOAD","DECAY_DATE":null,"TIME_SYSTEM":"UTC","BSTAR":"0.00010099000000","PERIOD":"95.592","RA_OF_ASC_NODE":"184.3548","MEAN_ELEMENT_THEORY":"SGP4","TLE_LINE2":"2 47628  53.0523 184.3548 0001304  97.3125 262.8012 15.06403374106983","INCLINATION":"53.0523","MEAN_MOTION_DDOT":"0.0000000000000","ARG_OF_PERICENTER":"97.3125","LAUNCH_DATE":"2021-02-16","COUNTRY_CODE":"US","GP_ID":"223251237","FILE":"3750956","APOAPSIS":"548.106","SEMIMAJOR_AXIS":"6925.338","RCS_SIZE":"LARGE","SITE":"AFETR","NORAD_CAT_ID":"47628","MEAN_MOTION":"15.06403374","CENTER_NAME":"EARTH","REF_FRAME":"TEME","EPHEMERIS_TYPE":"0"},{"RCS_SIZE":"LARGE","SITE":"AFETR","NORAD_CAT_ID":"47629","MEAN_MOTION":"15.06405755","REF_FRAME":"TEME","CENTER_NAME":"EARTH","EPHEMERIS_TYPE":"0","PERIOD":"95.592","MEAN_ELEMENT_THEORY":"SGP4","RA_OF_ASC_NODE":"64.4533","ARG_OF_PERICENTER":"89.2500","TLE_LINE2":"2 47629  53.0519  64.4533 0001919  89.2500 270.8709 15.06405755108642","MEAN_MOTION_DDOT":"0.0000000000000","INCLINATION":"53.0519","LAUNCH_DATE":"2021-02-16","GP_ID":"223250486","FILE":"3750956","COUNTRY_CODE":"US","SEMIMAJOR_AXIS":"6925.331","APOAPSIS":"548.525","ELEMENT_SET_NO":"999","TLE_LINE1":"1 47629U 21012K   23016.85692444  .00003952  00000-0  28405-3 0  9999","MEAN_MOTION_DOT":"0.00003952","OBJECT_TYPE":"PAYLOAD","DECAY_DATE":null,"TIME_SYSTEM":"UTC","BSTAR":"0.00028405000000","CLASSIFICATION_TYPE":"U","ECCENTRICITY":"0.00019190","REV_AT_EPOCH":"10864","PERIAPSIS":"545.867","OBJECT_ID":"2021-012K","EPOCH":"2023-01-16T20:33:58.271616","MEAN_ANOMALY":"270.8709","OBJECT_NAME":"STARLINK-1974"},{"SEMIMAJOR_AXIS":"6925.361","APOAPSIS":"548.123","FILE":"3750956","GP_ID":"223250736","COUNTRY_CODE":"US","LAUNCH_DATE":"2021-02-16","ARG_OF_PERICENTER":"91.9875","TLE_LINE2":"2 47630  53.0537 164.7226 0001296  91.9875 268.1263 15.06395976107232","MEAN_MOTION_DDOT":"0.0000000000000","INCLINATION":"53.0537","MEAN_ELEMENT_THEORY":"SGP4","RA_OF_ASC_NODE":"164.7226","PERIOD":"95.592","EPHEMERIS_TYPE":"0","REF_FRAME":"TEME","CENTER_NAME":"EARTH","MEAN_MOTION":"15.06395976","NORAD_CAT_ID":"47630","SITE":"AFETR","RCS_SIZE":"LARGE","MEAN_ANOMALY":"268.1263","EPOCH":"2023-01-16T19:32:56.929920","OBJECT_NAME":"STARLINK-1983","PERIAPSIS":"546.328","OBJECT_ID":"2021-012L","ECCENTRICITY":"0.00012960","REV_AT_EPOCH":"10723","CLASSIFICATION_TYPE":"U","BSTAR":"0.00001877500000","TIME_SYSTEM":"UTC","OBJECT_TYPE":"PAYLOAD","DECAY_DATE":null,"ELEMENT_SET_NO":"999","TLE_LINE1":"1 47630U 21012L   23016.81454780 -.00000002  00000-0  18775-4 0  9990","MEAN_MOTION_DOT":"-0.00000002"},{"ELEMENT_SET_NO":"999","TLE_LINE1":"1 47632U 21012N   23016.60854287  .00004051  00000-0  29060-3 0  9990","MEAN_MOTION_DOT":"0.00004051","TIME_SYSTEM":"UTC","DECAY_DATE":null,"OBJECT_TYPE":"PAYLOAD","BSTAR":"0.00029060000000","CLASSIFICATION_TYPE":"U","ECCENTRICITY":"0.00020070","REV_AT_EPOCH":"10775","PERIAPSIS":"545.788","OBJECT_ID":"2021-012N","MEAN_ANOMALY":"304.3812","EPOCH":"2023-01-16T14:36:18.103968","OBJECT_NAME":"STARLINK-1992","SITE":"AFETR","RCS_SIZE":"LARGE","MEAN_MOTION":"15.06411707","NORAD_CAT_ID":"47632","REF_FRAME":"TEME","CENTER_NAME":"EARTH","EPHEMERIS_TYPE":"0","MEAN_ELEMENT_THEORY":"SGP4","RA_OF_ASC_NODE":"90.5522","PERIOD":"95.591","TLE_LINE2":"2 47632  53.0540  90.5522 0002007  55.7367 304.3812 15.06411707107759","INCLINATION":"53.0540","MEAN_MOTION_DDOT":"0.0000000000000","ARG_OF_PERICENTER":"55.7367","GP_ID":"223206402","FILE":"3749831","COUNTRY_CODE":"US","LAUNCH_DATE":"2021-02-16","SEMIMAJOR_AXIS":"6925.313","APOAPSIS":"548.568"},{"OBJECT_TYPE":"PAYLOAD","DECAY_DATE":null,"TIME_SYSTEM":"UTC","BSTAR":"0.00009398300000","ELEMENT_SET_NO":"999","MEAN_MOTION_DOT":"0.00001119","TLE_LINE1":"1 47633U 21012P   23016.89283910  .00001119  00000-0  93983-4 0  9999","OBJECT_ID":"2021-012P","PERIAPSIS":"546.331","EPOCH":"2023-01-16T21:25:41.298240","MEAN_ANOMALY":"283.5502","OBJECT_NAME":"STARLINK-2009","CLASSIFICATION_TYPE":"U","REV_AT_EPOCH":"10700","ECCENTRICITY":"0.00012740","REF_FRAME":"TEME","CENTER_NAME":"EARTH","EPHEMERIS_TYPE":"0","RCS_SIZE":"LARGE","SITE":"AFETR","NORAD_CAT_ID":"47633","MEAN_MOTION":"15.06400111","LAUNCH_DATE":"2021-02-16","GP_ID":"223251738","FILE":"3750956","COUNTRY_CODE":"US","SEMIMAJOR_AXIS":"6925.348","APOAPSIS":"548.096","PERIOD":"95.592","MEAN_ELEMENT_THEORY":"SGP4","RA_OF_ASC_NODE":"184.3201","ARG_OF_PERICENTER":"76.5629","TLE_LINE2":"2 47633  53.0529 184.3201 0001274  76.5629 283.5502 15.06400111107009","MEAN_MOTION_DDOT":"0.0000000000000","INCLINATION":"53.0529"},{"ELEMENT_SET_NO":"999","MEAN_MOTION_DOT":"0.00000759","TLE_LINE1":"1 47634U 21012Q   23016.86797618  .00000759  00000-0  69840-4 0  9996","BSTAR":"0.00006984000000","DECAY_DATE":null,"OBJECT_TYPE":"PAYLOAD","TIME_SYSTEM":"UTC","ECCENTRICITY":"0.00012180","REV_AT_EPOCH":"10697","CLASSIFICATION_TYPE":"U","EPOCH":"2023-01-16T20:49:53.141952","MEAN_ANOMALY":"270.4101","OBJECT_NAME":"STARLINK-2010","PERIAPSIS":"546.359","OBJECT_ID":"2021-012Q","NORAD_CAT_ID":"47634","MEAN_MOTION":"15.06403518","RCS_SIZE":"LARGE","SITE":"AFETR","EPHEMERIS_TYPE":"0","REF_FRAME":"TEME","CENTER_NAME":"EARTH","TLE_LINE2":"2 47634  53.0532 184.3996 0001218  89.7027 270.4101 15.06403518106970","MEAN_MOTION_DDOT":"0.0000000000000","ARG_OF_PERICENTER":"89.7027","INCLINATION":"53.0532","PERIOD":"95.592","MEAN_ELEMENT_THEORY":"SGP4","RA_OF_ASC_NODE":"184.3996","SEMIMAJOR_AXIS":"6925.338","APOAPSIS":"548.046","LAUNCH_DATE":"2021-02-16","FILE":"3750956","GP_ID":"223249986","COUNTRY_CODE":"US"},{"INCLINATION":"53.0535","TLE_LINE2":"2 47635  53.0535  89.2877 0001716  84.8448 275.2737 15.06384652108316","MEAN_MOTION_DDOT":"0.0000000000000","ARG_OF_PERICENTER":"84.8448","PERIOD":"95.593","MEAN_ELEMENT_THEORY":"SGP4","RA_OF_ASC_NODE":"89.2877","SEMIMAJOR_AXIS":"6925.396","APOAPSIS":"548.449","LAUNCH_DATE":"2021-02-16","GP_ID":"223250236","FILE":"3750956","COUNTRY_CODE":"US","NORAD_CAT_ID":"47635","MEAN_MOTION":"15.06384652","RCS_SIZE":"LARGE","SITE":"AFETR","EPHEMERIS_TYPE":"0","REF_FRAME":"TEME","CENTER_NAME":"EARTH","REV_AT_EPOCH":"10831","ECCENTRICITY":"0.00017160","CLASSIFICATION_TYPE":"U","EPOCH":"2023-01-16T21:26:22.733088","MEAN_ANOMALY":"275.2737","OBJECT_NAME":"STARLINK-2012","PERIAPSIS":"546.072","OBJECT_ID":"2021-012R","ELEMENT_SET_NO":"999","MEAN_MOTION_DOT":"-0.00008520","TLE_LINE1":"1 47635U 21012R   23016.89331867 -.00008520  00000-0 -55398-3 0  9998","BSTAR":"-0.00055398000000","DECAY_DATE":null,"OBJECT_TYPE":"PAYLOAD","TIME_SYSTEM":"UTC"}];
